{
  "type": "FeatureCollection",
  "features": [
    {
      "type": "Feature",
      "properties": {
        "norad_id": 39773,
        "name": "EUTELSAT 3B",
        "group": "eutelsat",
        "lat": 0.00992004360944173,
        "lon": 179.3243443343535,
        "alt_km": 35775.56699665814,
        "timestamp": "2025-12-21T05:44:51.247375+00:00",
        "meta_object_name": "EUTELSAT 3B",
        "meta_object_id": "2014-030A",
        "meta_epoch": "2025-12-20T21:48:17.753184",
        "meta_mean_motion": 1.0027263,
        "meta_eccentricity": 0.00041506,
        "meta_inclination": 0.0609,
        "meta_ra_of_asc_node": 7.7172,
        "meta_arg_of_pericenter": 225.4933,
        "meta_mean_anomaly": 186.6943,
        "meta_ephemeris_type": 0,
        "meta_classification_type": "U",
        "meta_norad_cat_id": 39773,
        "meta_element_set_no": 999,
        "meta_rev_at_epoch": 4227,
        "meta_bstar": 0,
        "meta_mean_motion_dot": 4.3e-07,
        "meta_mean_motion_ddot": 0,
        "tle_line1": "1 39773U 14030A   25354.90853881  .00000043  00000+0  00000+0 0  9993",
        "tle_line2": "2 39773   0.0609   7.7172 0004150 225.4933 186.6943  1.00272630 42271"
      },
      "geometry": {
        "type": "Point",
        "coordinates": [
          179.3243443343535,
          0.00992004360944173
        ]
      }
    },
    {
      "type": "Feature",
      "properties": {
        "norad_id": 40425,
        "name": "EUTELSAT 115 WEST B",
        "group": "eutelsat",
        "lat": -0.011762734669086821,
        "lon": 61.36583579550231,
        "alt_km": 35787.20386438516,
        "timestamp": "2025-12-21T05:44:51.247387+00:00",
        "meta_object_name": "EUTELSAT 115 WEST B",
        "meta_object_id": "2015-010B",
        "meta_epoch": "2025-12-20T14:23:46.908672",
        "meta_mean_motion": 1.00268579,
        "meta_eccentricity": 2.153e-05,
        "meta_inclination": 0.0116,
        "meta_ra_of_asc_node": 154.8645,
        "meta_arg_of_pericenter": 161.3344,
        "meta_mean_anomaly": 234.2819,
        "meta_ephemeris_type": 0,
        "meta_classification_type": "U",
        "meta_norad_cat_id": 40425,
        "meta_element_set_no": 999,
        "meta_rev_at_epoch": 3960,
        "meta_bstar": 0,
        "meta_mean_motion_dot": -1e-08,
        "meta_mean_motion_ddot": 0,
        "tle_line1": "1 40425U 15010B   25354.59984848 -.00000001  00000+0  00000+0 0  9996",
        "tle_line2": "2 40425   0.0116 154.8645 0000215 161.3344 234.2819  1.00268579 39603"
      },
      "geometry": {
        "type": "Point",
        "coordinates": [
          61.36583579550231,
          -0.011762734669086821
        ]
      }
    },
    {
      "type": "Feature",
      "properties": {
        "norad_id": 40875,
        "name": "EUTELSAT 8 WEST B",
        "group": "eutelsat",
        "lat": 0.01745868501264716,
        "lon": 168.22210881433384,
        "alt_km": 35790.21237017536,
        "timestamp": "2025-12-21T05:44:51.247399+00:00",
        "meta_object_name": "EUTELSAT 8 WEST B",
        "meta_object_id": "2015-039B",
        "meta_epoch": "2025-12-20T21:45:10.552032",
        "meta_mean_motion": 1.00271081,
        "meta_eccentricity": 0.00042647,
        "meta_inclination": 0.0632,
        "meta_ra_of_asc_node": 359.2917,
        "meta_arg_of_pericenter": 271.5388,
        "meta_mean_anomaly": 137.2014,
        "meta_ephemeris_type": 0,
        "meta_classification_type": "U",
        "meta_norad_cat_id": 40875,
        "meta_element_set_no": 999,
        "meta_rev_at_epoch": 3786,
        "meta_bstar": 0,
        "meta_mean_motion_dot": -4.2e-07,
        "meta_mean_motion_ddot": 0,
        "tle_line1": "1 40875U 15039B   25354.90637213 -.00000042  00000+0  00000+0 0  9997",
        "tle_line2": "2 40875   0.0632 359.2917 0004264 271.5388 137.2014  1.00271081 37865"
      },
      "geometry": {
        "type": "Point",
        "coordinates": [
          168.22210881433384,
          0.01745868501264716
        ]
      }
    },
    {
      "type": "Feature",
      "properties": {
        "norad_id": 41310,
        "name": "EUTELSAT 9B",
        "group": "eutelsat",
        "lat": 0.054544275883278766,
        "lon": -174.7877301728505,
        "alt_km": 35785.87755565585,
        "timestamp": "2025-12-21T05:44:51.247411+00:00",
        "meta_object_name": "EUTELSAT 9B",
        "meta_object_id": "2016-005A",
        "meta_epoch": "2025-12-20T21:49:55.098336",
        "meta_mean_motion": 1.00272773,
        "meta_eccentricity": 0.00044752,
        "meta_inclination": 0.0633,
        "meta_ra_of_asc_node": 71.8002,
        "meta_arg_of_pericenter": 203.8085,
        "meta_mean_anomaly": 150.6034,
        "meta_ephemeris_type": 0,
        "meta_classification_type": "U",
        "meta_norad_cat_id": 41310,
        "meta_element_set_no": 999,
        "meta_rev_at_epoch": 3632,
        "meta_bstar": 0,
        "meta_mean_motion_dot": 8.5e-07,
        "meta_mean_motion_ddot": 0,
        "tle_line1": "1 41310U 16005A   25354.90966549  .00000085  00000+0  00000+0 0  9999",
        "tle_line2": "2 41310   0.0633  71.8002 0004475 203.8085 150.6034  1.00272773 36329"
      },
      "geometry": {
        "type": "Point",
        "coordinates": [
          -174.7877301728505,
          0.054544275883278766
        ]
      }
    },
    {
      "type": "Feature",
      "properties": {
        "norad_id": 41382,
        "name": "EUTELSAT 65 WEST A",
        "group": "eutelsat",
        "lat": 0.05812912328273107,
        "lon": 111.06101183854838,
        "alt_km": 35794.07580159222,
        "timestamp": "2025-12-21T05:44:51.247422+00:00",
        "meta_object_name": "EUTELSAT 65 WEST A",
        "meta_object_id": "2016-014A",
        "meta_epoch": "2025-12-20T21:28:49.619136",
        "meta_mean_motion": 1.00273935,
        "meta_eccentricity": 0.00021263,
        "meta_inclination": 0.0529,
        "meta_ra_of_asc_node": 333.3598,
        "meta_arg_of_pericenter": 299.6152,
        "meta_mean_anomaly": 73.7536,
        "meta_ephemeris_type": 0,
        "meta_classification_type": "U",
        "meta_norad_cat_id": 41382,
        "meta_element_set_no": 999,
        "meta_rev_at_epoch": 3574,
        "meta_bstar": 0,
        "meta_mean_motion_dot": -2.53e-06,
        "meta_mean_motion_ddot": 0,
        "tle_line1": "1 41382U 16014A   25354.89501874 -.00000253  00000+0  00000+0 0  9990",
        "tle_line2": "2 41382   0.0529 333.3598 0002126 299.6152  73.7536  1.00273935 35745"
      },
      "geometry": {
        "type": "Point",
        "coordinates": [
          111.06101183854838,
          0.05812912328273107
        ]
      }
    },
    {
      "type": "Feature",
      "properties": {
        "norad_id": 41589,
        "name": "EUTELSAT 117 WEST B",
        "group": "eutelsat",
        "lat": -0.013361228826865395,
        "lon": 59.29350444223297,
        "alt_km": 35785.79411961924,
        "timestamp": "2025-12-21T05:44:51.247434+00:00",
        "meta_object_name": "EUTELSAT 117 WEST B",
        "meta_object_id": "2016-038B",
        "meta_epoch": "2025-12-20T16:05:44.643840",
        "meta_mean_motion": 1.00273449,
        "meta_eccentricity": 4.349e-05,
        "meta_inclination": 0.0079,
        "meta_ra_of_asc_node": 146.2318,
        "meta_arg_of_pericenter": 177.0977,
        "meta_mean_anomaly": 250.626,
        "meta_ephemeris_type": 0,
        "meta_classification_type": "U",
        "meta_norad_cat_id": 41589,
        "meta_element_set_no": 999,
        "meta_rev_at_epoch": 3487,
        "meta_bstar": 0,
        "meta_mean_motion_dot": 1.1e-07,
        "meta_mean_motion_ddot": 0,
        "tle_line1": "1 41589U 16038B   25354.67065560  .00000011  00000+0  00000+0 0  9999",
        "tle_line2": "2 41589   0.0079 146.2318 0000434 177.0977 250.6260  1.00273449 34872"
      },
      "geometry": {
        "type": "Point",
        "coordinates": [
          59.29350444223297,
          -0.013361228826865395
        ]
      }
    },
    {
      "type": "Feature",
      "properties": {
        "norad_id": 42741,
        "name": "EUTELSAT 172B",
        "group": "eutelsat",
        "lat": -0.015337970580954463,
        "lon": -11.73125776491348,
        "alt_km": 35786.39644657611,
        "timestamp": "2025-12-21T05:44:51.247446+00:00",
        "meta_object_name": "EUTELSAT 172B",
        "meta_object_id": "2017-029B",
        "meta_epoch": "2025-12-20T19:11:02.813568",
        "meta_mean_motion": 1.00271787,
        "meta_eccentricity": 1.887e-05,
        "meta_inclination": 0.0327,
        "meta_ra_of_asc_node": 122.2996,
        "meta_arg_of_pericenter": 340.6051,
        "meta_mean_anomaly": 86.4889,
        "meta_ephemeris_type": 0,
        "meta_classification_type": "U",
        "meta_norad_cat_id": 42741,
        "meta_element_set_no": 999,
        "meta_rev_at_epoch": 3194,
        "meta_bstar": 0,
        "meta_mean_motion_dot": 1.8e-07,
        "meta_mean_motion_ddot": 0,
        "tle_line1": "1 42741U 17029B   25354.79933812  .00000018  00000+0  00000+0 0  9995",
        "tle_line2": "2 42741   0.0327 122.2996 0000188 340.6051  86.4889  1.00271787 31942"
      },
      "geometry": {
        "type": "Point",
        "coordinates": [
          -11.73125776491348,
          -0.015337970580954463
        ]
      }
    }
  ]
}